[{"OBJECT_NAME":"SAUDISAT 5A","OBJECT_ID":"2018-102A","EPOCH":"2026-03-09T23:40:00.596928","MEAN_MOTION":15.26941021,"ECCENTRICITY":0.00113651,"INCLINATION":97.3185,"RA_OF_ASC_NODE":132.4981,"ARG_OF_PERICENTER":121.7113,"MEAN_ANOMALY":238.5235,"EPHEMERIS_TYPE":0,"CLASSIFICATION_TYPE":"U","NORAD_CAT_ID":43831,"ELEMENT_SET_NO":999,"REV_AT_EPOCH":40053,"BSTAR":0.00030305233,"MEAN_MOTION_DOT":7.96e-5,"MEAN_MOTION_DDOT":0},{"OBJECT_NAME":"STARLINK-36062","OBJECT_ID":"2025-278D","EPOCH":"2026-03-09T03:31:10.346592","MEAN_MOTION":15.27594512,"ECCENTRICITY":0.00010859,"INCLINATION":42.9972,"RA_OF_ASC_NODE":117.6427,"ARG_OF_PERICENTER":283.1516,"MEAN_ANOMALY":76.9215,"EPHEMERIS_TYPE":0,"CLASSIFICATION_TYPE":"U","NORAD_CAT_ID":66794,"ELEMENT_SET_NO":999,"REV_AT_EPOCH":1512,"BSTAR":0.0010821006,"MEAN_MOTION_DOT":0.00029648,"MEAN_MOTION_DDOT":0}]
